KUIPER-00165            
1 65778U 25217S   25297.71493958  .00034402  00000+0  95076-3 0  9993
2 65778  51.8704 301.4256 0003930 157.8529 202.2627 15.36712893  4508
KUIPER-00166            
1 65779U 25217T   25297.70911138  .00036996  00000+0  10109-2 0  9991
2 65779  51.8714 301.3882 0003207 133.6793 226.4460 15.37032493  4501
KUIPER-00167            
1 65780U 25217U   25297.72972819  .00048686  00000+0  13726-2 0  9995
2 65780  51.8689 301.5188 0005304 199.4750 160.6034 15.35926074  4509
KUIPER-00168            
1 65781U 25217V   25297.63131573  .00041393  00000+0  11080-2 0  9999
2 65781  51.8727 301.6206 0002817  61.4074 298.7196 15.37618624  4499
KUIPER-00169            
1 65782U 25217W   25297.71093742  .00045507  00000+0  12442-2 0  9998
2 65782  51.8718 301.4006 0002834 150.6213 209.4934 15.36919540  4502
KUIPER-00170            
1 65783U 25217X   25297.59775919  .00034558  00000+0  97677-3 0  9996
2 65783  51.8679 302.1324 0002553 198.0927 161.9968 15.36013889  4483
KUIPER-00171            
1 65784U 25217Y   25297.75002315  .00038034  00000+0  93366-3 0  9992
2 65784  51.8690 301.2154 0004681 178.7860  34.5674 15.40305581  4637
KUIPER-00172            
1 65785U 25217Z   25297.50800994  .00040597  00000+0  10968-2 0  9998
2 65785  51.8724 302.2929 0002526 120.3901 239.7336 15.37342119  4472
KUIPER-00173            
1 65786U 25217AA  25297.70725113  .00037541  00000+0  10225-2 0  9991
2 65786  51.8706 301.3765 0002636 135.0130 225.1070 15.37125918  4504
KUIPER-00174            
1 65787U 25217AB  25297.63334657  .00032824  00000+0  88459-3 0  9997
2 65787  51.8724 301.6309 0002815  95.2800 264.8508 15.37520628  4493
KUIPER-00176            
1 65788U 25217AC  25297.63779323  .00042345  00000+0  11443-2 0  9998
2 65788  51.8715 301.6627 0002337  92.8801 267.2453 15.37315126  4491
KUIPER-00101            
1 65947U 25228A   25297.75002315  .00083041  00000+0  24348-2 0  9996
2 65947  51.8801 256.5584 0006154 174.1151 134.5549 15.34447551  2571
KUIPER-00113            
1 65948U 25228B   25297.75002315  .00083417  00000+0  24260-2 0  9997
2 65948  51.8805 256.5410 0006499 170.5827 148.0142 15.34698480  2675
KUIPER-00117            
1 65949U 25228C   25297.75002315  .00084253  00000+0  24531-2 0  9998
2 65949  51.8805 256.5440 0006315 170.4842 146.5472 15.34659170  2315
KUIPER-00121            
1 65950U 25228D   25297.75002315  .00081009  00000+0  24038-2 0  9998
2 65950  51.8810 256.5956 0005912 188.1551 105.1013 15.34082289  1659
KUIPER-00122            
1 65951U 25228E   25297.75002315  .00082865  00000+0  24695-2 0  9999
2 65951  51.8796 256.5992 0006267 194.1949  94.8213 15.33933663  1516
KUIPER-00123            
1 65952U 25228F   25297.75002315  .00081593  00000+0  24268-2 0  9993
2 65952  51.8796 256.5892 0005716 183.2789 110.0269 15.34006872  1308
KUIPER-00124            
1 65953U 25228G   25297.75002315  .00080894  00000+0  24145-2 0  9991
2 65953  51.8806 256.6063 0005784 197.2889  89.7531 15.33899322  1306
KUIPER-00125            
1 65954U 25228H   25297.75002315  .00082957  00000+0  24429-2 0  9999
2 65954  51.8798 256.5689 0005955 179.3243 123.8414 15.34311756  2734
KUIPER-00126            
1 65955U 25228J   25297.75002315  .00080973  00000+0  24059-2 0  9995
2 65955  51.8801 256.5974 0006299 192.8290  97.8467 15.34039739  2311
KUIPER-00127            
1 65956U 25228K   25297.75002315  .00083214  00000+0  24262-2 0  9993
2 65956  51.8805 256.5467 0006178 171.3215 144.4225 15.34623554  1749
KUIPER-00128            
1 65957U 25228L   25297.75002315  .00081830  00000+0  24027-2 0  9995
2 65957  51.8807 256.5671 0005987 175.3522 131.7295 15.34410130  2753
KUIPER-00129            
1 65958U 25228M   25297.75002315  .00083294  00000+0  24440-2 0  9991
2 65958  51.8806 256.5624 0006185 170.1718 138.9438 15.34421949  2671
KUIPER-00130            
1 65959U 25228N   25297.75002315  .00086437  00000+0  25502-2 0  9994
2 65959  51.8798 256.5781 0005625 186.1690 112.5986 15.34234227  2565
KUIPER-00134            
1 65960U 25228P   25297.75002315  .00081522  00000+0  24162-2 0  9997
2 65960  51.8795 256.5856 0005482 189.5666 105.4452 15.34119046  2175
KUIPER-00135            
1 65961U 25228Q   25297.75002315  .00081939  00000+0  24287-2 0  9998
2 65961  51.8810 256.5877 0005297 177.9470 119.3783 15.34114921  2061
KUIPER-00136            
1 65962U 25228R   25297.75002315  .00084685  00000+0  24738-2 0  9991
2 65962  51.8805 256.5540 0006105 174.2602 138.7711 15.34555384  2124
KUIPER-00137            
1 65963U 25228S   25297.75002315  .00082135  00000+0  24283-2 0  9995
2 65963  51.8810 256.5847 0005482 184.6905 113.9154 15.34194604  1847
KUIPER-00138            
1 65964U 25228T   25297.75002315  .00081118  00000+0  24130-2 0  9997
2 65964  51.8798 256.5927 0006140 195.7946  96.5359 15.34002751  1824
KUIPER-00140            
1 65965U 25228U   25297.75002315  .00081437  00000+0  24242-2 0  9996
2 65965  51.8805 256.6025 0005854 196.9938  91.8004 15.33980124  1989
KUIPER-00141            
1 65966U 25228V   25297.75002315  .00085891  00000+0  25225-2 0  9997
2 65966  51.8799 256.5638 0006056 176.2753 129.3817 15.34379087  2343
KUIPER-00146            
1 65967U 25228W   25297.75002315  .00084357  00000+0  24814-2 0  9997
2 65967  51.8809 256.5732 0006032 177.8984 126.4259 15.34337407  2526
KUIPER-00149            
1 65968U 25228X   25297.75002315  .00083094  00000+0  24313-2 0  9999
2 65968  51.8803 256.5530 0005949 174.8483 136.7523 15.34513691  1308
KUIPER-00154            
1 65969U 25228Y   25297.75002315  .00088358  00000+0  25765-2 0  9990
2 65969  51.8803 256.5478 0006148 172.4684 141.8281 15.34588980  1816
KUIPER-00157            
1 65970U 25228Z   25297.75002315  .00082881  00000+0  24541-2 0  9998
2 65970  51.8809 256.5932 0006083 189.1595 105.2365 15.34138702  2724
